SHIJIAN-17 (SJ-17)      
1 41838U 16065A   26177.58637191  .00000123  00000+0  00000+0 0  9999
2 41838   5.7763  72.4953 0002233  28.5327 246.5081  0.99858719 35292
GOES 16                 
1 41866U 16071A   26177.93006260 -.00000080  00000+0  00000+0 0  9996
2 41866   0.3654  85.5325 0000584   9.0124  50.6297  1.00272080 35205
TIANLIAN 1-04           
1 41869U 16072A   26177.77193406  .00000042  00000+0  00000+0 0  9998
2 41869   0.8929  82.8675 0042882  90.3195 196.3824  1.00273179 35398
WGS F8 (USA 272)        
1 41879U 16075A   26177.70947480  .00000000  00000+0  00000+0 0  9998
2 41879   0.0463  53.6813 0000539  46.9656 219.4604  1.00278356 34918
FENGYUN 4A              
1 41882U 16077A   26177.54757616 -.00000348  00000+0  00000+0 0  9992
2 41882   2.3469  80.1884 0008229 152.1316   3.0696  1.00264621 35024
ECHOSTAR 19             
1 41893U 16079A   26177.93153594 -.00000127  00000+0  00000+0 0  9999
2 41893   0.0177  21.3769 0001622  67.2961  64.6202  1.00270693 34805
JCSAT-110A (JCSAT-15)   
1 41903U 16082A   26177.90127284 -.00000340  00000+0  00000+0 0  9996
2 41903   0.0181 358.1573 0001006 100.0677 251.3268  1.00275034 34858
STAR ONE D1             
1 41904U 16082B   26177.93413595 -.00000199  00000+0  00000+0 0  9995
2 41904   0.0223  54.9584 0002294  56.2632  56.1217  1.00271765 34876
TJS-2                   
1 41911U 17001A   26177.86572287  .00000004  00000+0  00000+0 0  9995
2 41911   0.8582  85.2182 0000769  45.0948 162.8659  1.00272292 34817
SBIRS GEO-4 (USA 273)   
1 41937U 17004A   26177.95489144  .00000133  00000+0  00000+0 0  9998
2 41937   2.2613  43.5515 0002373  44.5546 191.6311  1.00273796 34695
HISPASAT 36W-1          
1 41942U 17006A   26177.51587764 -.00000233  00000+0  00000+0 0  9997
2 41942   0.0087 285.7882 0000977 164.6045 333.9657  1.00269517 34336
TELKOM 3S               
1 41944U 17007A   26177.90283285 -.00000351  00000+0  00000+0 0  9995
2 41944   0.0123  63.0924 0002502  32.3536 262.5954  1.00273122 34238
INTELSAT 32E (IS-32E)   
1 41945U 17007B   26177.95832544 -.00000258  00000+0  00000+0 0  9995
2 41945   0.0144 338.3406 0000507  26.5367 212.0104  1.00268631 34321
ECHOSTAR 23             
1 42070U 17014A   26177.64384111  .00000000  00000+0  00000+0 0  9995
2 42070   0.0283  20.8116 0002085  74.4920 301.3478  1.00271326 34013
WGS F9 (USA 275)        
1 42075U 17016A   26177.73453815  .00000000  00000+0  00000+0 0  9990
2 42075   0.0257 349.3327 0000372  72.7542 105.2043  1.00271032 33999
SES-10                  
1 42432U 17017A   26177.79498846 -.00000261  00000+0  00000+0 0  9997
2 42432   0.0202  39.1664 0002994  60.2342  34.8140  1.00271701 33859
CHINASAT 16 (SJ-13)     
1 42662U 17018A   26176.97461878 -.00000342  00000+0  00000+0 0  9997
2 42662   0.0997  89.7024 0004043 125.6560 160.1297  1.00275032 33836
KOREASAT 7              
1 42691U 17023A   26177.90248617 -.00000350  00000+0  00000+0 0  9992
2 42691   0.0202  20.8844 0000468  53.4601 281.4769  1.00271078 33460
SGDC                    
1 42692U 17023B   26177.44530164 -.00000238  00000+0  00000+0 0  9998
2 42692   0.0223  58.2366 0002860  42.5775 259.2142  1.00271749 33505
GSAT-9                  
1 42695U 17024A   26177.82744707 -.00000275  00000+0  00000+0 0  9995
2 42695   0.0387  88.1199 0002099  16.8878 205.0967  1.00275521 33390
INMARSAT 5-F4           
1 42698U 17025A   26177.74812470  .00000000  00000+0  00000+0 0  9998
2 42698   0.0278  22.9153 0000721  19.9960 197.7868  1.00277150 33379
SES-15                  
1 42709U 17026A   26177.72018892  .00000072  00000+0  00000+0 0  9995
2 42709   0.0197 336.5648 0000730 101.7226 326.6485  1.00267078  7524
QZS-2 (MICHIBIKI-2)     
1 42738U 17028A   26177.49072513 -.00000138  00000+0  00000+0 0  9997
2 42738  39.4133 243.0175 0759188 269.3662  80.9134  1.00281441  7714
VIASAT-2                
1 42740U 17029A   26177.58042147 -.00000254  00000+0  00000+0 0  9990
2 42740   0.0170 299.6959 0000478 125.7864 348.2901  1.00271969 33297
EUTELSAT 172B           
1 42741U 17029B   26177.91357956  .00000006  00000+0  00000+0 0  9999
2 42741   0.0403 139.2682 0000249 302.2383 334.4140  1.00270990 33838
GSAT-19                 
1 42747U 17031A   26177.96026479  .00000137  00000+0  00000+0 0  9991
2 42747   0.0146 326.2494 0007164 110.3451 232.0265  1.00272326 33245
ECHOSTAR 21             
1 42749U 17032A   26177.81023689  .00000077  00000+0  00000+0 0  9991
2 42749   1.7701 356.3529 0002608  88.7011 131.8214  1.00273326 33198
BULGARIASAT-1           
1 42801U 17038A   26177.66604241  .00000023  00000+0  00000+0 0  9999
2 42801   0.0323  74.7153 0003604  32.4833  49.2702  1.00274055 32944
HELLAS-SAT 3            
1 42814U 17040A   26177.95853145  .00000164  00000+0  00000+0 0  9993
2 42814   0.0409  36.2008 0004333  23.7398 239.2163  1.00269535 32909
GSAT-17                 
1 42815U 17040B   26177.89806616 -.00000246  00000+0  00000+0 0  9990
2 42815   0.0304  84.4367 0001381 207.3592  40.0258  1.00272486 32882
INTELSAT 35E (IS-35E)   
1 42818U 17041A   26177.95421337  .00000000  00000+0  00000+0 0  9991
2 42818   0.0271  24.3394 0002390  73.2171 126.5436  1.00269159 32910
COSMOS 2520             
1 42907U 17046A   26177.95974479  .00000149  00000+0  00000+0 0  9999
2 42907   0.0406  98.5521 0000384  65.0069 142.0217  1.00266696 32496
